[{"OBJECT_NAME":"STARLINK-32786","OBJECT_ID":"2025-004T","EPOCH":"2026-03-09T10:18:34.313184","MEAN_MOTION":15.27605327,"ECCENTRICITY":0.00016438,"INCLINATION":43,"RA_OF_ASC_NODE":220.9248,"ARG_OF_PERICENTER":257.5437,"MEAN_ANOMALY":102.523,"EPHEMERIS_TYPE":0,"CLASSIFICATION_TYPE":"U","NORAD_CAT_ID":62528,"ELEMENT_SET_NO":999,"REV_AT_EPOCH":6547,"BSTAR":0.0017049234,"MEAN_MOTION_DOT":0.0004699,"MEAN_MOTION_DDOT":0},{"OBJECT_NAME":"OBJECT H","OBJECT_ID":"2025-155H","EPOCH":"2026-03-09T22:09:58.611456","MEAN_MOTION":15.27590961,"ECCENTRICITY":0.00081993,"INCLINATION":97.4482,"RA_OF_ASC_NODE":37.3122,"ARG_OF_PERICENTER":152.0629,"MEAN_ANOMALY":208.1051,"EPHEMERIS_TYPE":0,"CLASSIFICATION_TYPE":"U","NORAD_CAT_ID":64883,"ELEMENT_SET_NO":999,"REV_AT_EPOCH":6559,"BSTAR":0.00050403256,"MEAN_MOTION_DOT":0.00013547,"MEAN_MOTION_DDOT":0}]
